locationTypeCode,locationName,address,lat,lon
COOL_LOCN,Martingrove Gardens Park,31 LAVINGTON DR,43.68911127,-79.56353093
COOL_LOCN,Masseygrove Park,80 KENDLETON DR,43.7344594,-79.58830819
COOL_LOCN,Rexdale Park,6 DRUMHELLER RD,43.72367637,-79.56552733
COOL_LOCN,Willowdale Park,75 HOLLYWOOD AVE,43.76602437,-79.40786872
COOL_LOCN,Rotary Peace Park,25 ELEVENTH ST,43.59389042,-79.50591623
COOL_LOCN,Indian Line Park,655 HUMBERWOOD BLVD,43.72491474,-79.62265359
COOL_LOCN,Oriole Park - North York,2955 DON MILLS RD,43.78143619,-79.35120579
COOL_LOCN,Amos Waites Park,2441 LAKE SHORE BLVD,43.613291,-79.48851345
COOL_LOCN,Kingsview Park,46 KINGSVIEW BLVD,43.69911321,-79.55453744
COOL_LOCN,West Neighbourhood House,588 Queen St W  Toronto  ON  M6J 1E3,43.647423,-79.404281
COOL_LOCN,Greystone Park,845 DANFORTH RD,43.72606867,-79.25237482
COOL_LOCN,Lakeshore Village Park,45 GARNETT JANES RD,43.60084377,-79.51022875
COOL_LOCN,Belmar Park,70 MONCLOVA RD,43.73197868,-79.50981069
COOL_LOCN,North Humber Park,2851 KIPLING AVE,43.75736236,-79.58785331
COOL_LOCN,Bell Manor Park,1 BAYSIDE LANE,43.63747223,-79.49257161
COOL_LOCN,"Giovanni Caboto Rink, Pool and Tennis Courts",1367 ST CLAIR AVE,43.675704,-79.45227
COOL_LOCN,Michael Power Park,5055 DUNDAS ST,43.64522818,-79.53123841
COOL_LOCN,Eastview Park,33 CORONATION DR,43.76068121,-79.19034906
COOL_LOCN,Kempton Howard Park,150 BLAKE ST,43.67615641,-79.34035221
COOL_CNTR,Etobicoke Civic Centre,399 The West Mall,43.643502,-79.566094
COOL_LOCN,Dentonia Park,80 THYRA AVE,43.693628,-79.293737
COOL_LOCN,O'Connor Community Centre,1386 VICTORIA PARK AVE,43.717663,-79.301931
COOL_LOCN,Scadding Court Community Centre,707 DUNDAS ST,43.651665,-79.404953
COOL_LOCN,Milliken Park,5555 STEELES AVE,43.82942526,-79.27069386
COOL_LOCN,Port Union Village Common Park,105 BRIDGEND ST,43.77569195,-79.13530301
COOL_LOCN,De Havilland 'Mossie' Park,111 ANTHONY RD,43.72730031,-79.46802521
COOL_LOCN,Cedarbrae Collegiate Institute,550 MARKHAM RD,43.756582,-79.226156
COOL_LOCN,CW Jefferys Collegiate Institute,340 SENTINEL RD,43.758117,-79.500353
COOL_LOCN,Grange Park,26 Grange Rd,43.65249475,-79.39242666
COOL_LOCN,DA Morrison Middle School,271 GLEDHILL AVE,43.694565,-79.312094
COOL_LOCN,Morningside Park,390 MORNINGSIDE AVE,43.77944401,-79.19650665
COOL_LOCN,Birunthan Park,31 DRAGONFLY CRES,43.82267836,-79.22578127
COOL_LOCN,Emery Collegiate Institute,3395 WESTON RD,43.748271,-79.539236
COOL_LOCN,Georges Vanier Secondary School,3000 DON MILLS RD,43.783248,-79.351126
COOL_LOCN,Oates Park,10 OATES DR,43.7043477,-79.27442439
COOL_LOCN,Gordon A. Brown Middle School,2800 ST CLAIR AVE,43.706938,-79.305835
COOL_LOCN,Oakridge Park,3459 DANFORTH AVE,43.69235133,-79.27898691
COOL_LOCN,L'Amoreaux Collegiate Institute,2501 BRIDLETOWNE CIR,43.801504,-79.31864
COOL_LOCN,Scarboro Crescent Park,61 UNDERCLIFF DR,43.70320362,-79.24221971
COOL_LOCN,Lester B. Pearson Collegiate Institute,150 TAPSCOTT RD,43.803059,-79.226017
COOL_LOCN,Lee Centre Park,112 CORPORATE DR,43.78095821,-79.24679934
COOL_LOCN,Sherbourne Common,5 LOWER SHERBOURNE ST,43.64441404,-79.3649384
COOL_LOCN,Sir Oliver Mowat Collegiate Institute,5400 LAWRENCE AVE,43.779385,-79.142051
COOL_LOCN,Vaughan Road Academy,529 VAUGHAN RD,43.690589,-79.436815
COOL_LOCN,Warden Hilltop Community Centre,25 MENDELSSOHN ST,43.714559,-79.280944
COOL_LOCN,Fairfield Park,90 LOTHIAN AVE,43.63882629,-79.51980116
COOL_LOCN,Florence Gell Park,85 VARSITY RD,43.66189098,-79.49836343
COOL_LOCN,West Hill Collegiate Institute,350 MORNINGSIDE AVE,43.775738,-79.190376
COOL_LOCN,Birchcrest Park,89 BEVERLY GLEN BLVD,43.79859491,-79.32199055
COOL_LOCN,Weston Collegiate Institute,100 PINE ST,43.703739,-79.509569
COOL_LOCN,Six Points Park,10 VIKING LANE,43.63957418,-79.53613615
COOL_LOCN,Wexford Collegiate Institute,1176 PHARMACY AVE,43.746001,-79.306767
COOL_LOCN,York Mills Collegiate Institute,490 YORK MILLS RD,43.751097,-79.37365
COOL_LOCN,Rita Cox Park,14 MACHELLS AVE,43.64007791,-79.42577247
COOL_LOCN,Aldwych Park,134 ALDWYCH AVE,43.68490867,-79.34141832
COOL_LOCN,Loretto College - Wading Pool,151 ROSEMOUNT AVE,43.67519,-79.44444
COOL_LOCN,Pam McConnell Aquatic Centre,640 DUNDAS ST,43.660828,-79.360937
COOL_LOCN,Toronto Island Park,9 QUEENS QUAY,43.62224628,-79.38082461
COOL_LOCN,Withrow Park and Clubhouse,725 LOGAN AVE,43.674952,-79.347131
COOL_LOCN,Fairmount Park Community Centre,1757 GERRARD ST,43.676593,-79.314785
COOL_LOCN,Heron Park,292  MANSE RD,43.76922739,-79.17750525
COOL_LOCN,Toronto Island Park - Centre Island,9 QUEENS QUAY,43.61713041,-79.37573912
COOL_LOCN,Dufferin And King Park,256 DUFFERIN ST,43.63806906,-79.4277259
COOL_LOCN,Primrose Avenue Parkette,120 PRIMROSE AVE,43.67143615,-79.44663737
COOL_LOCN,Stanley Park South - Toronto,700 WELLINGTON ST,43.641854,-79.409133
COOL_LOCN,Gledhill Park,125 GLEDHILL AVE,43.69079458,-79.31011395
COOL_LOCN,Leaside Outdoor Pool,5 LEASIDE PARK DR,43.70203158,-79.35022813
COOL_LOCN,Toronto Pan Am Sports Centre,875 MORNINGSIDE AVE,43.789444,-79.193188
COOL_LOCN,Coronation Park - York,2700 EGLINTON AVE,43.69093675,-79.47996878
COOL_LOCN,East York Community Centre,1081 PAPE AVE,43.691732,-79.349401
COOL_LOCN,York Recreation Centre,115 BLACK CREEK DR,43.68661771,-79.48011899
COOL_LOCN,Budapest Park,1575 LAKE SHORE BLVD,43.63680757,-79.44956381
COOL_LOCN,Parkway Forest Outdoor Pool,59 Forest Manor RD,43.772377,-79.344396
COOL_LOCN,Woburn Park - Scarborough,50 DORMINGTON DR,43.78142948,-79.22785942
COOL_LOCN,David Crombie Park,131 THE ESPLANADE,43.64853941,-79.36810383
COOL_LOCN,Marie Curtis Park,2 FORTY SECOND ST,43.58564323,-79.54407233
COOL_LOCN,Stephen Leacock Park,2530 BIRCHMOUNT RD,43.78716164,-79.302686
COOL_LOCN,Alexandra Park,275 BATHURST ST,43.651152,-79.404958
COOL_LOCN,McGregor Park,2231 LAWRENCE AVE,43.74724675,-79.28076178
COOL_LOCN,Northview Heights Secondary School,550 FINCH AVE,43.774503,-79.446065
COOL_LOCN,Greenwood Park,150 GREENWOOD AVE,43.66855,-79.328748
COOL_LOCN,Riverdale Park East,550 BROADVIEW AVE,43.669995,-79.35594
COOL_LOCN,Riverdale Park West,375 SUMACH ST,43.66659338,-79.3592231
COOL_LOCN,Sistering,962 Bloor St W  Toronto  ON  M6H 1L6,43.661416,-79.428785
COOL_LOCN,Jack Goodlad Park,929 KENNEDY RD,43.74239331,-79.27011936
COOL_LOCN,Brookbanks Park,75 BROOKBANKS DR,43.75621201,-79.33220715
COOL_LOCN,High Park,1873 BLOOR ST,43.64654,-79.463497
COOL_LOCN,June Rowlands Park,220 DAVISVILLE AVE,43.70063949,-79.38872884
COOL_LOCN,Kiwanis Outdoor Pool,375 CEDARVALE AVE,43.698312,-79.314255
COOL_LOCN,Trudelle Park,36 TRUDELLE ST,43.74147478,-79.24493732
COOL_LOCN,Humber Community Pool,205 HUMBER COLLEGE BLVD,43.730849,-79.608844
COOL_LOCN,Orchard Park,1987 DUNDAS ST,43.66866883,-79.31433941
COOL_LOCN,Sugar Beach Park,11 DOCKSIDE DR,43.64320851,-79.36770125
COOL_LOCN,Albert Crosland Park,14 FULLER AVE,43.640728,-79.440291
COOL_LOCN,Cassels Avenue Playground,69 CASSELS AVE,43.68001384,-79.30709619
COOL_LOCN,Maple Claire Park,20 VIELLA ST,43.67259108,-79.47308256
COOL_LOCN,Barbara Hall Park,519 CHURCH ST,43.66662152,-79.38071412
COOL_LOCN,Avonshire Park,125 HARRISON GARDEN BLVD,43.75792716,-79.40464628
COOL_LOCN,Matty Eckler Playground,953 GERRARD ST,43.66794638,-79.33854054
COOL_LOCN,Ramsden Park,1020 YONGE ST,43.67641,-79.389569
COOL_LOCN,Tall Pines Park,64 RYLANDER BLVD,43.79849589,-79.15149387
COOL_LOCN,Wells Hill Park,145 HILTON AVE,43.68284052,-79.4165921
COOL_LOCN,General Mercer School - Wading Pool,30 TURNBERRY AVE,43.68032,-79.46432
COOL_LOCN,Pam McConnell Aquatic Centre,640 DUNDAS ST,43.660828,-79.360937
COOL_LOCN,Joseph Bannon Park,65 MARY CHAPMAN BLVD,43.73235892,-79.5349725
COOL_LOCN,Moss Park,150 SHERBOURNE ST,43.65501197,-79.37127535
COOL_LOCN,Alex Duff Memorial Pool,779 CRAWFORD ST,43.66461445,-79.42099197
COOL_LOCN,Coleman Park,19 COLEMAN AVE,43.68934368,-79.30001523
COOL_LOCN,Regent Park,600 DUNDAS ST,43.661011,-79.362185
COOL_LOCN,Corktown Common,155 BAYVIEW AVE,43.65397335,-79.35261004
COOL_LOCN,George Webster Park,30 CHAPMAN AVE,43.70124076,-79.30117396
COOL_LOCN,Lionel Conacher Park,80 COTTINGHAM ST,43.68042937,-79.39460733
COOL_LOCN,Oriole Park - Toronto,201 ORIOLE PKWY,43.69719119,-79.40043637
COOL_LOCN,Pottery Playground,601 MERTON ST,43.69945324,-79.37869543
COOL_LOCN,Sunnyside Gus Ryder Outdoor Pool,1755 LAKE SHORE BLVD,43.63680116,-79.4593602
COOL_LOCN,Donald D. Summerville Olympic Pools,1867 LAKE SHORE BLVD,43.664903,-79.304898
COOL_LOCN,Diamond Jubilee Promenade,475 FRONT ST,43.653351,-79.355392
COOL_LOCN,Joel Weeks Park,10 THOMPSON ST,43.65948235,-79.35298346
COOL_LOCN,Wellesley Park,500 WELLESLEY ST,43.66954666,-79.36240104
COOL_LOCN,Woburn Avenue Playground,75 WOBURN AVE,43.72743454,-79.40597989
COOL_LOCN,Perth Square Park,350 PERTH AVE,43.66391378,-79.45267615
COOL_LOCN,St Stephen's Community House,260 Augusta Ave  Toronto  ON  M5T 2L9,43.65648,-79.402996
COOL_LOCN,Amesbury Sports Complex,155 CULFORD RD,43.706033,-79.486735
COOL_LOCN,Dovercourt Park,155 BARTLETT AVE,43.66515956,-79.43373286
COOL_LOCN,"Stop: Community Food Centre, The","1884 Davenport Rd, Rear Entrance  Toronto  ON  M6N 4Y2",43.670859,-79.45382
COOL_LOCN,Cummer Park Community Centre,6000 LESLIE ST,43.800122,-79.371256
COOL_LOCN,Fenside Park,30 SLIDELL CRES,43.76484123,-79.32742261
COOL_LOCN,Syme Woolner Neighbourhood & Family Centre,2468 Eglinton Ave W  Toronto  ON  M6M 5E2,43.691929,-79.468411
COOL_LOCN,Dieppe Park,455 COSBURN AVE,43.691962,-79.335642
COOL_LOCN,Fairbank Memorial Park,2213 DUFFERIN ST,43.6915952,-79.4478255
COOL_LOCN,Toronto Council Fire Native Cultural Centre,439 Dundas St E  Toronto  ON  M5A 2B1,43.65928,-79.366308
COOL_LOCN,Budapest Park,1575 LAKE SHORE BLVD,43.63680757,-79.44956381
COOL_LOCN,Smythe Park,61 BLACK CREEK BLVD,43.675065,-79.497846
COOL_LOCN,Earl Bales Park,4169 BATHURST ST,43.75259405,-79.43131971
COOL_LOCN,McGregor Park Community Centre,2231 LAWRENCE AVE,43.747537,-79.28008
COOL_LOCN,Weston King Neighbourhood Centre,2017 Weston Rd  Toronto  ON  M9N 1X2,43.701372,-79.520101
COOL_LOCN,Birchmount Community Centre,93 BIRCHMOUNT RD,43.69531,-79.261565
COOL_LOCN,Spenvalley Park,130 SPENVALLEY DR,43.74433903,-79.50649183
COOL_LOCN,Wychwood Open Door,"729 St. Clair Ave W, Bsmt  Toronto  ON  M6C 1B2",43.681239,-79.427246
COOL_LOCN,Macgregor Playground,346 LANSDOWNE AVE,43.65310911,-79.44230718
COOL_LOCN,Weston Lions Park,2125 LAWRENCE AVE,43.69789026,-79.51773465
COOL_LOCN,YMCA of Greater Toronto,7 Vanauley St  Toronto  ON  M5T 2V9,43.648869,-79.398283
COOL_LOCN,Joseph J. Piccininni Community Centre,1369 ST CLAIR AVE,43.675288,-79.451574
COOL_LOCN,Warden Woods Community Centre,"40 Teesdale Pl, Gr Fl  Toronto  ON  M1L 1L3",43.6972002,-79.2866467
COOL_LOCN,Agincourt Community Services Association (ACSA),202 Markham Rd  Toronto  ON  M1J 3C2,43.743773,-79.219741
COOL_LOCN,Stan Wadlow Park,888 COSBURN AVE,43.69831218,-79.31425482
COOL_LOCN,R.V. Burgess Park,46 THORNCLIFFE PARK DR,43.70374226,-79.34394368
COOL_LOCN,Earlscourt Park,1200 LANSDOWNE AVE,43.673568,-79.451702
COOL_LOCN,Howard Talbot Park,635 EGLINTON AVE,43.71021557,-79.37374964
COOL_LOCN,Regent Park Community Health Centre,"Adelaide Resource Centre for Women, 3rd Fl 67 Adelaide St E  Toronto  ON  M5C 1K6",43.650986,-79.375299
COOL_LOCN,Woodbine Park,1695 QUEEN ST,43.66387937,-79.31310326
COOL_LOCN,Centennial Recreation Centre - Scarborough,1967 ELLESMERE RD,43.774614,-79.236814
COOL_LOCN,Massey Harris Park,945 KING ST,43.64138465,-79.41353321
COOL_LOCN,Annette Community Recreation Centre,333 ANNETTE ST,43.661273,-79.474259
COOL_LOCN,Gamble Park,150 GAMBLE AVE,43.69105336,-79.3472191
COOL_LOCN,Leaside Memorial Gardens Swimming Pool - Indoor Pool,1073 MILLWOOD RD,43.701891,-79.360991
COOL_LOCN,Beaches Recreation Centre,6 WILLIAMSON RD,43.673955,-79.298821
COOL_LOCN,Blantyre Park,180 FALLINGBROOK RD,43.683009,-79.280892
COOL_LOCN,Wychwood Barns Park,76 WYCHWOOD AVE,43.67948542,-79.42390968
COOL_LOCN,Bedford Park Community Centre,81 RANLEIGH AVE,43.728173,-79.399908
COOL_LOCN,Douglas Snow Aquatic Centre,5100 YONGE ST,43.767245,-79.41477
COOL_LOCN,Joyce Trimmer Park,8450 SHEPPARD AVE,43.80555456,-79.18975833
COOL_LOCN,Alexandra Park,275 BATHURST ST,43.651152,-79.404958
COOL_LOCN,Amesbury Park,151 CULFORD RD,43.70613216,-79.48361864
COOL_LOCN,Driftwood Community Recreation Centre,4401 JANE ST,43.765384,-79.518764
COOL_LOCN,Ancaster Park,43 ANCASTER RD,43.73337062,-79.46570139
COOL_LOCN,Earl Beatty Community Centre,455 GLEBEHOLME BLVD,43.686461,-79.321143
COOL_LOCN,Heron Park Community Centre,292 MANSE RD,43.768835,-79.17578
COOL_LOCN,Glen Long Community Centre,35 GLEN LONG AVE,43.708761,-79.456113
COOL_LOCN,Marian Engel Park,285 MELITA AVE,43.67371745,-79.42436498
COOL_LOCN,Frankland Community Centre,816 LOGAN AVE,43.677428,-79.349662
COOL_LOCN,Smythe Park,61 BLACK CREEK BLVD,43.67506516,-79.49784608
COOL_LOCN,Balmoral Park,170 FAYWOOD BLVD,43.74480881,-79.45008185
COOL_LOCN,Gord and Irene Risk Community Centre,2650 FINCH AVE,43.747443,-79.56652
COOL_LOCN,Antibes Community Centre,140 ANTIBES DR,43.781211,-79.446795
COOL_LOCN,Goulding Community Centre,45 GOULDING AVE,43.790626,-79.422164
COOL_LOCN,Weston Lions Park,2125 LAWRENCE AVE,43.69789026,-79.51773465
COOL_LOCN,Bayview Village Park,2945 BAYVIEW AVE,43.77321524,-79.38779361
COOL_LOCN,Chalkfarm Community Centre,180 Chalkfarm Dr,43.724048,-79.511815
COOL_LOCN,Harrison Pool,15 STEPHANIE ST,43.65108109,-79.39079613
COOL_LOCN,Grandravine Community Recreation Centre,23 GRANDRAVINE DR,43.751803,-79.490574
COOL_LOCN,Bellbury Park,55 VAN HORNE AVE,43.78370457,-79.36157183
COOL_LOCN,Cummer Park Community Centre,6000 Leslie St,43.800104,-79.371262
COOL_LOCN,Geary Avenue Parkette,15 GEARY AVE,43.67090966,-79.43092788
COOL_LOCN,Irving W. Chapley Community Centre,205 WILMINGTON AVE,43.761588,-79.456089
COOL_LOCN,Adams Park,2 ROZELL RD,43.79211331,-79.14597949
COOL_LOCN,Curran Hall Community Centre,277 Orton Park Rd,43.777425,-79.210847
COOL_LOCN,Hillcrest Community Centre,1339 BATHURST ST,43.679051,-79.415687
COOL_LOCN,Lawrence Heights Community Centre,5 REPLIN RD,43.71847,-79.443102
COOL_LOCN,Dennis R. Timbrell Resource Centre,29 St Dennis Dr,43.717941,-79.331687
COOL_LOCN,Berner Trail Park,45 NAHANNI TER,43.80125582,-79.22345563
COOL_LOCN,Highview Park,150 HIGHVIEW AVE,43.7026208,-79.25814236
COOL_LOCN,Masaryk Park,212 COWAN AVE,43.64024836,-79.4333265
COOL_LOCN,Domenico Di Luca Community Recreation Centre,25 Stanley Rd,43.742445,-79.515844
COOL_LOCN,Jimmie Simpson Recreation Centre,870 QUEEN ST,43.660041,-79.344948
COOL_LOCN,Ledbury Park,160 LEDBURY ST,43.726787,-79.42596
COOL_LOCN,Thomson Memorial Park,1005 BRIMLEY RD,43.7579199,-79.25326761
COOL_LOCN,Don Montgomery Community Centre,2467 Eglinton Ave E,43.732663,-79.261665
COOL_LOCN,Knob Hill Park,625 BRIMLEY RD,43.74388909,-79.24846736
COOL_LOCN,McCormick Park,66 SHERIDAN AVE,43.647492,-79.432833
COOL_LOCN,Totts Tot Lot,1 GRADWELL DR,43.71320387,-79.23442889
COOL_LOCN,Douglas Snow Aquatic Centre,5100 Yonge St,43.767268,-79.414889
COOL_LOCN,Elm Park - North York,230 GOSFORD BLVD,43.76983211,-79.52541563
COOL_LOCN,John Innes Community Recreation Centre,150 SHERBOURNE ST,43.65557,-79.369955
COOL_LOCN,Driftwood Community Recreation Centre,4401 Jane St,43.765456,-79.518779
COOL_LOCN,Jonathan Ashbridge Park,1515 QUEEN ST,43.66464268,-79.32013169
COOL_LOCN,Mitchell Field Community Centre,89 CHURCH AVE,43.774539,-79.408281
COOL_LOCN,Earl Bales Community Centre,4169 Bathurst St,43.752582,-79.431882
COOL_LOCN,Greenwood Park,150 GREENWOOD AVE,43.66855,-79.328748
COOL_LOCN,East York Community Centre,1081 1/2 Pape Ave,43.691784,-79.34927
COOL_LOCN,Vradenberg Park,40 VRADENBERG DR,43.77479005,-79.31039627
COOL_LOCN,Fennimore Park,78 FENNIMORE CRES,43.7455929,-79.52249135
COOL_LOCN,Northwood Community Centre,15 CLUBHOUSE CRT,43.745563,-79.500372
COOL_LOCN,Sir Casimir Gzowski Park,2001 LAKE SHORE BLVD,43.6349239,-79.46631982
COOL_LOCN,White Haven Park,63 INVERGORDON AVE,43.78641328,-79.24996628
COOL_LOCN,Corvette Park,40 CORVETTE AVE,43.72712277,-79.25999445
COOL_LOCN,Edithvale Community Centre,131 Finch Ave W,43.776994,-79.426539
COOL_LOCN,Fred Hamilton Playground,155 ROXTON RD,43.65290885,-79.42043039
COOL_LOCN,Oriole Community Centre,2975 DON MILLS RD,43.78187,-79.351131
COOL_LOCN,Art Eggleton Park,323 HARBORD ST,43.65889417,-79.41835802
COOL_LOCN,Bridlewood Park,445 HUNTINGWOOD DR,43.78270993,-79.31658642
COOL_LOCN,Ellesmere Community Centre,20 Canadian Rd,43.760978,-79.29861
COOL_LOCN,Pleasantview Community Centre,545 VAN HORNE AVE,43.786962,-79.337102
COOL_LOCN,Elmbank Community Centre,10 Rampart Rd,43.7348,-79.588706
COOL_LOCN,Flemington Park,2 FLEMINGTON RD,43.72125375,-79.44479078
COOL_LOCN,Hideaway Park,23 AUDLEY AVE,43.66455493,-79.338183
COOL_LOCN,Prairie Drive Park,101 Pharmacy Ave DR,43.69705805,-79.28432047
COOL_LOCN,Fairbank Memorial Community Centre,2213 Dufferin St,43.691282,-79.447997
COOL_LOCN,Roding Community Centre,600 RODING ST,43.729276,-79.492601
COOL_LOCN,Seven Oaks Park,372 MILITARY TRL,43.78819505,-79.21078818
COOL_LOCN,Domenico Di Luca Community Recreation Centre,25 STANLEY RD,43.742429,-79.515673
COOL_LOCN,Elizabeth Simcoe Park,180 SYLVAN AVE,43.7393865,-79.20495388
COOL_LOCN,Fairmount Park Community Centre,1757 Gerrard St E,43.676646,-79.315116
COOL_LOCN,High Park,1873 BLOOR ST,43.64654,-79.463497
COOL_LOCN,Falstaff Community Centre,50 Falstaff Ave,43.716722,-79.503839
COOL_LOCN,Halbert Park,24 ROCKWOOD DR,43.72877269,-79.23151286
COOL_LOCN,Hillcrest Park,950 DAVENPORT RD,43.67592887,-79.42472448
COOL_LOCN,Shawn Blu Rose Park,30 EMPRINGHAM DR,43.81202146,-79.20993048
COOL_LOCN,Dunlop Park,19 DUNLOP AVE,43.71255815,-79.26750027
COOL_LOCN,Flemingdon Community Centre and Playground Paradise,150 Grenoble Dr,43.713531,-79.326603
COOL_LOCN,Main Square Community Centre,245 MAIN ST,43.687164,-79.29985
COOL_LOCN,Dovercourt Park,155 BARTLETT AVE,43.66515956,-79.43373286
COOL_LOCN,Glen Long Community Centre,35 Glen Long Ave,43.708626,-79.455802
COOL_LOCN,Oakdale Community Centre,350 GRANDRAVINE DR,43.747788,-79.513149
COOL_LOCN,Dufferin Grove Park,875 DUFFERIN ST,43.65624245,-79.43268597
COOL_LOCN,Gord and Irene Risk Community Centre,2650 Finch Ave W,43.747318,-79.566743
COOL_LOCN,Goulding Community Centre,45 Goulding Ave,43.790912,-79.422143
COOL_LOCN,John Tabor Park,240 JOHN TABOR TRL,43.80579132,-79.20557479
COOL_LOCN,Maryvale Park Outdoor Pool,5 TRESTLESIDE GRV,43.7530262,-79.30672952
COOL_LOCN,Terraview Park,1625 PHARMACY AVE,43.76621785,-79.31178477
COOL_LOCN,Cedarvale Park,443 ARLINGTON AVE,43.6922986,-79.43075717
COOL_LOCN,Mary McCormick Recreation Centre,66 SHERIDAN AVE,43.647477,-79.432802
COOL_LOCN,The Elms Pool and Community School,45 GOLFDOWN DR,43.722739,-79.551852
COOL_LOCN,Chalkfarm Park,2230 JANE ST,43.72371066,-79.5158252
COOL_LOCN,Grandravine Community Recreation Centre,23 Grandravine Dr,43.751753,-79.489716
COOL_LOCN,Kew Gardens,2075 QUEEN ST,43.667946,-79.29778
COOL_LOCN,Norseman Community School And Pool,105 NORSEMAN ST,43.634316,-79.516305
COOL_LOCN,Centennial Public Library,578 Finch Ave W,43.77304673,-79.44959349
COOL_LOCN,East Lynn Park,1949 DANFORTH AVE,43.68415167,-79.31557247
COOL_LOCN,Heron Park Community Centre,292 Manse Rd,43.768856,-79.176938
COOL_LOCN,Glendora Park,201 GLENDORA AVE,43.76147328,-79.4001222
COOL_LOCN,City Hall Public Library,"Nathan Phillips Square, 100 Queen St W",43.65282214,-79.38362506
COOL_LOCN,Birch Park,75 ARCADIAN CIR,43.591682,-79.528294
COOL_LOCN,East Toronto Athletic Field,175 MAIN ST,43.68524125,-79.29935248
COOL_LOCN,Gracedale Park,176 GRACEDALE BLVD,43.75188825,-79.56236972
COOL_LOCN,Humberwood Community Centre,850 Humberwood Blvd,43.728886,-79.619182
COOL_LOCN,Cliffcrest Public Library,3017 Kingston Rd,43.72527317,-79.23078016
COOL_LOCN,Eglinton Park,200 EGLINTON AVE,43.70740121,-79.40552685
COOL_LOCN,Graydon Hall Park,215 GRAYDON HALL DR,43.76281156,-79.34268996
COOL_LOCN,Irving W. Chapley Community Centre,205 Wilmington Ave,43.761351,-79.45575
COOL_LOCN,Mimico Memorial Park,75 HILLSIDE AVE,43.60975831,-79.49386615
COOL_LOCN,College/Shaw Public Library,766 College St,43.65521044,-79.42015986
COOL_LOCN,Harryetta Gardens,170 TORRESDALE AVE,43.78158624,-79.45167836
COOL_LOCN,Joseph J. Piccininni Community Centre,1369 St Clair Ave W,43.675331,-79.451397
COOL_LOCN,Leslie Grove Park,1158 QUEEN ST,43.66310396,-79.33375935
COOL_LOCN,Park Lawn Park,330 PARK LAWN RD,43.6370094,-79.49481925
COOL_LOCN,Danforth/Coxwell Public Library,1675 Danforth Ave,43.68364498,-79.32135616
COOL_LOCN,Heathrow Park,69 HEATHROW DR,43.72442405,-79.50811794
COOL_LOCN,L'Amoreaux Community Recreation Centre,2000 McNicoll Ave,43.812656,-79.304895
COOL_LOCN,Lithuania Park,155 OAKMOUNT RD,43.65869299,-79.46320025
COOL_LOCN,Davenport Public Library,1246 Shaw St,43.67457869,-79.42842124
COOL_LOCN,Hendon Park,50 HENDON AVE,43.78142074,-79.42094828
COOL_LOCN,Lawrence Heights Community Centre,5 Replin Rd,43.717997,-79.442363
COOL_LOCN,Margaret Fairley Park,100 BRUNSWICK AVE,43.66021508,-79.40582689
COOL_LOCN,Summerlea Park,2 ARCOT BLVD,43.73107613,-79.55081825
COOL_LOCN,Dawes Road Public Library,416 Dawes Rd,43.70121089,-79.29723304
COOL_LOCN,Fairmount Park,1725 GERRARD ST,43.67583716,-79.31592609
COOL_LOCN,Malvern Recreation Centre,30 Sewell's Rd,43.808576,-79.216389
COOL_LOCN,Sunnydale Acres Park,50 AMORO DR,43.72404271,-79.57871854
COOL_LOCN,Deer Park Public Library,40 St. Clair Ave E,43.68866835,-79.39249675
COOL_LOCN,Little Norway Park,659 QUEENS QUAY,43.63422378,-79.39868073
COOL_LOCN,Mary McCormick Recreation Centre,66 Sheridan Ave,43.647504,-79.433044
COOL_LOCN,Masaryk-Cowan Community Recreation Centre,220 Cowan Ave,43.640725,-79.433234
COOL_LOCN,Downsview Public Library,2793 Keele St,43.7289416,-79.48206299
COOL_LOCN,Irving W. Chapley Park,205 WILMINGTON AVE,43.76172223,-79.45541708
COOL_LOCN,Fairhaven Park Outdoor Pool,100 GOLFWOOD HTS,43.70177091,-79.54513038
COOL_LOCN,Glamorgan Park,50 ANTRIM CRES,43.77258975,-79.28887711
COOL_LOCN,Baird Park,275 KEELE ST,43.66232367,-79.46279072
COOL_LOCN,Lanyard Park,138 LANYARD RD,43.74746162,-79.54886783
COOL_LOCN,Westmount Park Outdoor Pool,22 ARCADE DR,43.687242,-79.51898
COOL_LOCN,Horseley Hill Park,145 HORSELEY HILL DR,43.81072646,-79.22973712
COOL_LOCN,McGregor Park Community Centre,2231 Lawrence Ave E,43.747629,-79.280149
COOL_LOCN,Monarch Park,115 FELSTEAD AVE,43.678849,-79.32627
COOL_LOCN,Richmond Gardens Pool,44 STRATHDEE DR,43.681851,-79.545353
COOL_LOCN,Dufferin/St. Clair Public Library,1625 Dufferin St,43.67700529,-79.4424027
COOL_LOCN,Mcnicoll Park,215 MCNICOLL AVE,43.79855513,-79.35348461
COOL_LOCN,Milliken Park Community Recreation Centre,4325 McCowan Rd,43.829648,-79.274582
COOL_LOCN,Memorial Pool and Health Club,44 MONTGOMERY RD,43.648428,-79.519356
COOL_LOCN,Carlton Park,20 EDITH AVE,43.66650714,-79.45567501
COOL_LOCN,Eatonville Public Library,430 Burnhamthorpe Rd,43.6461396,-79.55933826
COOL_LOCN,Etobicoke Olympium,590 RATHBURN RD,43.650236,-79.584349
COOL_LOCN,Mitchell Field Community Centre,89 Church Ave,43.774644,-79.408537
COOL_LOCN,Parkway Forest Park,80 PARKWAY FOREST DR,43.77121473,-79.34188434
COOL_LOCN,Albion Pool and Health Club,1485 ALBION RD,43.739325,-79.581284
COOL_LOCN,Eglinton Square Public Library,Eglinton Square Shopping Centre 1 Eglinton Square,43.723013,-79.300826
COOL_LOCN,North Kipling Community Centre,2 Rowntree Rd,43.751762,-79.584893
COOL_LOCN,Parma Park,99 PARMA CRT,43.717811,-79.30234665
COOL_LOCN,Sherwood Park,190 SHERWOOD AVE,43.71672437,-79.3885194
COOL_LOCN,Elmbrook Park Public Library,2 Elmbrook Crescent,43.65993281,-79.58391695
COOL_LOCN,Gihon Spring Park Outdoor Pool,75 GIHON SPRING DR,43.75447416,-79.59482298
COOL_LOCN,Pelmo Park,171 PELLATT AVE,43.71360366,-79.51873203
COOL_LOCN,Randy Padmore Park,47 DENISON AVE,43.64975449,-79.401045
COOL_LOCN,North Toronto Memorial Community Centre,200 Eglinton Ave W,43.706106,-79.404623
COOL_LOCN,Bob Hunter Park,205 GENERATION BLVD,43.8003992,-79.16189641
COOL_LOCN,Evelyn Gregory Public Library,120 Trowell Ave,43.68633245,-79.4723666
COOL_LOCN,Jimmie Simpson Park,870 QUEEN ST,43.660057,-79.345227
COOL_LOCN,Northwood Community Centre,15 Clubhouse Crt,43.745526,-79.499993
COOL_LOCN,Smithfield Park Outdoor Pool,175 MOUNT OLIVE DR,43.74755159,-79.59607509
COOL_LOCN,Fairview Public Library,35 Fairview Mall Dr,43.77911024,-79.34678218
COOL_LOCN,Gus Ryder Pool and Health Club,1 FAUSTINA DR,43.601192,-79.522114
COOL_LOCN,Moorevale Park,175 MOORE AVE,43.69347618,-79.38246474
COOL_LOCN,O'Connor Community Centre,1386 Victoria Park Ave,43.717668,-79.301856
COOL_LOCN,Sandown Park,50 NATAL AVE,43.70994657,-79.25355483
COOL_LOCN,Alderwood Centre,2 ORIANNA DR,43.601836,-79.547774
COOL_LOCN,Flemingdon Park Public Library,29 St. Dennis Dr,43.71794068,-79.33168736
COOL_LOCN,Oakdale Community Centre,350 Grandravine Dr,43.748051,-79.51274
COOL_LOCN,Ravina Gardens,290 CLENDENAN AVE,43.659922,-79.473657
COOL_LOCN,Forest Hill Public Library,700 Eglinton Ave W,43.70223019,-79.42080223
COOL_LOCN,Oakridge Community Recreation Centre,63 Pharmacy Ave,43.694441,-79.28394
COOL_LOCN,Spencer - Cowan Parkette,80 SPENCER AVE,43.63631882,-79.43090544
COOL_LOCN,Fort York Public Library,190 Fort York Blvd,43.63931185,-79.40032554
COOL_LOCN,Oriole Community Centre,2975 Don Mills Rd W,43.78181,-79.351281
COOL_LOCN,Gerrard/Ashdale Public Library,1432 Gerrard St E,43.67248953,-79.32212132
COOL_LOCN,Flagstaff Park Outdoor Pool,42 MERCURY RD,43.72112,-79.590832
COOL_LOCN,Morse Street Playground,76 MORSE ST,43.65678578,-79.3402202
COOL_LOCN,Pine Point Park Outdoor Pool,15 GRIERSON RD,43.71540123,-79.54097075
COOL_LOCN,Ourland Community Centre,18 Ourland Ave,43.615097,-79.508258
COOL_LOCN,Rennie Park,1 RENNIE TER,43.643058,-79.472549
COOL_LOCN,Westgrove Park Outdoor Pool,15 REDGRAVE DR,43.68176605,-79.56785509
COOL_LOCN,Eringate Park Outdoor Pool,121 WELLESWORTH DR,43.66257189,-79.58109333
COOL_LOCN,Goldhawk Park Public Library,295 Alton Towers Circle,43.8240887,-79.27819456
COOL_LOCN,North Toronto Memorial Community Centre,200 EGLINTON AVE,43.706186,-79.404249
COOL_LOCN,Parkway Forest Community Centre,55 Forest Manor Rd,43.772537,-79.343894
COOL_LOCN,Lambton - Kingsway Park Outdoor Pool,37 MARQUIS AVE,43.65752829,-79.50800438
COOL_LOCN,Pleasantview Community Centre,545 Van Horne Ave,43.787003,-79.336705
COOL_LOCN,Chelsea Avenue Playground,103 CHELSEA AVE,43.65732027,-79.45594463
COOL_LOCN,High Park Public Library,228 Roncesvalles Ave,43.64513485,-79.44896294
COOL_LOCN,Port Union Community Recreation Centre,5450 Lawrence Ave E,43.779665,-79.140291
COOL_LOCN,Close Avenue Parkette,116 CLOSE AVE,43.63703505,-79.43518297
COOL_LOCN,Wedgewood Park  Outdoor Pool,15 SWAN AVE,43.64441452,-79.54772958
COOL_LOCN,Christie Pits Park,750 BLOOR ST,43.664659,-79.420842
COOL_LOCN,Highland Creek Public Library,3550 Ellesmere Rd,43.79006926,-79.17523782
COOL_LOCN,Regent Park Community Centre,402 Shuter St,43.657994,-79.36174
COOL_LOCN,West Deane Park Outdoor Pool,19 SEDGEBROOK CRES,43.660649,-79.561863
COOL_LOCN,Hillcrest Public Library,5801 Leslie St,43.79711717,-79.36901583
COOL_LOCN,Rosedale Park,20 SCHOLFIELD AVE,43.68272452,-79.37912942
COOL_LOCN,Regent Park Aquatic Centre,640 Dundas St E,43.661286,-79.360993
COOL_LOCN,West Mall Outdoor Pool,380 THE WEST MALL,43.64249209,-79.56689287
COOL_LOCN,Humber Bay Public Library,200 Park Lawn Rd,43.63032402,-79.49125267
COOL_LOCN,Roding Community Centre,600 Roding St,43.729092,-79.492501
COOL_LOCN,Humber Summit Public Library,2990 Islington Ave,43.75903803,-79.57159929
COOL_LOCN,Scarborough Village Recreation Centre,3600 Kingston Rd,43.739991,-79.216758
COOL_LOCN,Ourland Park Outdoor Pool,36 OURLAND AVE,43.61549667,-79.50889204
COOL_LOCN,Stanley Park North - Toronto,890 KING ST,43.64307555,-79.41004117
COOL_LOCN,Humberwood Public Library,850 Humberwood Blvd,43.72888586,-79.61918188
COOL_LOCN,Seneca Village Community Centre,1700 Finch Ave E,43.793884,-79.351292
COOL_LOCN,Stephenson Park,61 STEPHENSON AVE,43.68592807,-79.30383372
COOL_LOCN,Jane/Dundas Public Library,620 Jane St,43.665473,-79.49147
COOL_LOCN,S.H. Armstrong Community Centre,56 Woodfield Rd,43.66595,-79.322838
COOL_LOCN,Jane/Sheppard Public Library,1906 Sheppard Ave W,43.7399604,-79.5100357
COOL_LOCN,Rotary Peace Park Outdoor Pool,25 ELEVENTH ST,43.59389042,-79.50591623
COOL_LOCN,Coleman Park,19 COLEMAN AVE,43.68934368,-79.30001523
COOL_LOCN,Glen Park,44 EASTGLEN CRES,43.65076816,-79.55307571
COOL_LOCN,Prince of Wales Park,1 THIRD ST,43.5987857,-79.4989802
COOL_LOCN,St. Lawrence Community Recreation Centre,230 The Esplanade,43.649798,-79.36498
COOL_LOCN,Sumach - Shuter Parkette,485 SHUTER ST,43.65827159,-79.35894797
COOL_LOCN,Jones Public Library,118 Jones Ave,43.66595478,-79.33454716
COOL_LOCN,Northumberland Playground,770 OSSINGTON AVE,43.6627298,-79.42655574
COOL_LOCN,Stan Wadlow Clubhouse,373 Cedarvale Ave,43.698148,-79.31515
COOL_LOCN,Trace Manes Park,110 RUMSEY RD,43.70551558,-79.36764861
COOL_LOCN,Columbus Parkette,1985 DUNDAS ST,43.65090331,-79.44623037
COOL_LOCN,Livingstone Park,21 WOODVILLE AVE,43.69116835,-79.35398315
COOL_LOCN,Kennedy/Eglinton Public Library,"Liberty Square Plaza, 2380 Eglinton Ave E",43.73226269,-79.27036365
COOL_LOCN,Stephen Leacock Community Recreation Centre,2500 Birchmount Rd,43.786528,-79.302354
COOL_LOCN,Norwood Park,16 NORWOOD RD,43.68230922,-79.30336606
COOL_LOCN,Leaside Public Library,165 McRae Dr,43.70646083,-79.36755981
COOL_LOCN,Trace Manes Park Community Centre,110 Rumsey Rd,43.705726,-79.367173
COOL_LOCN,Lillian H. Smith Public Library,239 College St,43.6579264,-79.39838562
COOL_LOCN,Lionel Conacher Park,80 COTTINGHAM ST,43.68042937,-79.39460733
COOL_LOCN,Victoria Village,190 Bermondsey Road,43.72309,-79.31579
COOL_LOCN,Sunnylea Park,195 PRINCE EDWARD DR,43.64150244,-79.50182897
COOL_LOCN,Campbell Avenue Playground,225 CAMPBELL AVE,43.6635383,-79.44849883
COOL_LOCN,Locke Public Library,3083 Yonge St,43.72489486,-79.40173185
COOL_LOCN,Matty Eckler Recreation Centre,953 GERRARD ST,43.667886,-79.339771
COOL_LOCN,Viewmount Community Centre,169 Viewmount Ave,43.707493,-79.437241
COOL_LOCN,Dennis R. Timbrell Resource Centre,29 ST DENNIS DR,43.718018,-79.331628
COOL_LOCN,Long Branch Public Library,3500 Lake Shore Blvd W,43.59531436,-79.53132546
COOL_LOCN,Runnymede Park,221 RYDING AVE,43.6682365,-79.47874997
COOL_LOCN,Warden Hilltop Community Centre,25 Mendelssohn St,43.714903,-79.280489
COOL_LOCN,Don Russell Memorial Park,290 BIRMINGHAM ST,43.60141158,-79.52150262
COOL_LOCN,Main Street Public Library,137 Main St,43.68337184,-79.29947049
COOL_LOCN,Oakcrest Parkette,30 OAKCREST AVE,43.68347559,-79.31166487
COOL_LOCN,Wellesley Community Centre,495 Sherbourne St,43.667797,-79.374479
COOL_LOCN,Malvern Public Library,30 Sewells Rd,43.80857633,-79.21638943
COOL_LOCN,Trinity Bellwoods Park,790 QUEEN ST,43.645515,-79.413834
COOL_LOCN,West Rouge Community Centre,270 Rouge Hills Dr,43.792091,-79.125105
COOL_LOCN,Maria A. Shchuka Public Library,1745 Eglinton Ave W,43.69603932,-79.44724966
COOL_LOCN,York Recreation Centre,115 Black Creek Dr,43.687837,-79.482014
COOL_LOCN,Maryvale Public Library,"Parkway Mall, 85 Ellesmere Rd",43.75709575,-79.31241063
COOL_LOCN,Parkdale Community Recreation Centre,75 LANSDOWNE AVE,43.643443,-79.437478
COOL_CNTR,East York Civic Centre,850 Coxwell Avenue,43.691227,-79.328354
COOL_LOCN,Oriole Park - Toronto,201 ORIOLE PKWY,43.69719119,-79.40043637
COOL_LOCN,McGregor Park Public Library,2219 Lawrence Ave E,43.74791092,-79.28109093
COOL_LOCN,Osler Playground,123 ARGYLE ST,43.64584224,-79.42272385
COOL_LOCN,Mimico Centennial Public Library,47 Station Rd,43.61480162,-79.49374505
COOL_CNTR,Metro Hall,55 John Street,43.646029,-79.389133
COOL_LOCN,Vermont Square Park,819 PALMERSTON AVE,43.67076974,-79.41558656
COOL_LOCN,Morningside Public Library,4279 Lawrence Ave E,43.769862,-79.178447
COOL_CNTR,North York Civic Centre,5100 Yonge Street,43.767328,-79.414759
COOL_LOCN,Vine Avenue Playground,200 VINE AVE,43.66693641,-79.47069656
COOL_LOCN,Mount Dennis Public Library,1123 Won Rd,43.6866398,-79.48822468
COOL_LOCN,Baird Park,275 KEELE ST,43.66232367,-79.46279072
COOL_CNTR,Scarborough Civic Centre,150 Borough Dr M1P 4N7,43.7729,-79.2577
COOL_LOCN,Wadsworth Park,120 CONNOLLY ST,43.67228522,-79.45817036
COOL_LOCN,Mount Pleasant Public Library,599 Mt. Pleasant Rd,43.70396651,-79.38804485
COOL_LOCN,Wanless Park,250 WANLESS AVE,43.72887803,-79.3922559
COOL_LOCN,New Toronto Public Library,110 Eleventh St,43.5992449,-79.50973335
COOL_LOCN,North York Central Library Public Library,5120 Yonge St,43.768204,-79.4141
COOL_LOCN,St. Lawrence Community Recreation Centre,230 THE ESPLANADE,43.649807,-79.36493
COOL_LOCN,Northern District Public Library,40 Orchard View Blvd,43.70827849,-79.40006729
COOL_LOCN,Pelham Avenue Playground,20 PELHAM AVE,43.6683341,-79.45575836
COOL_LOCN,Northern Elms Public Library,123B Rexdale Blvd,43.71138367,-79.56524418
COOL_LOCN,Oakwood Village Library and Arts Centre,341 Oakwood Ave,43.68658379,-79.43815536
COOL_LOCN,Topham Park,181 WESTVIEW BLVD,43.709918,-79.306521
COOL_LOCN,West Lodge Park,165 LANSDOWNE AVE,43.64604787,-79.43818706
COOL_LOCN,Palmerston Public Library,560 Palmerston Ave,43.6651023,-79.41418793
COOL_LOCN,Pape/Danforth Public Library,701 Pape Ave,43.67864087,-79.34444282
COOL_LOCN,Trinity Community Recreation Centre,155 CRAWFORD ST,43.646444,-79.414973
COOL_LOCN,Beresford Park,400 BERESFORD AVE,43.65617682,-79.4796644
COOL_LOCN,Eaton Centre,220 Yonge Street,43.6544,-79.3807
COOL_LOCN,Fairview Mall,1800 Sheppard Ave. East,43.778,-79.3442
COOL_LOCN,Healey Willan Park,504 EUCLID AVE,43.6592219,-79.41340576
COOL_LOCN,Parliament Street Public Library,269 Gerrard St E,43.661838,-79.367958
COOL_LOCN,Phin Avenue Parkette,115 CONDOR AVE,43.67786094,-79.33651432
COOL_LOCN,Perth/Dupont Public Library,1589 Dupont St,43.66503386,-79.45383688
COOL_LOCN,Sherway Gardens,25 The West Mall,43.6116,-79.557
COOL_LOCN,Pleasant View Public Library,575 Van Horne Ave,43.78756168,-79.33544478
COOL_LOCN,Shops at Don Mills,1090 Don Mills Road,43.7339,-79.344
COOL_LOCN,Wallace Emerson Community Centre,1260 DUFFERIN ST,43.667441,-79.439097
COOL_LOCN,Charles G. Williams Park,75 WABASH AVE,43.64748155,-79.44347149
COOL_LOCN,Port Union Public Library,5450 Lawrence Ave E,43.77966459,-79.14029125
COOL_LOCN,Yonge Eglinton Centre,2300 Yonge Street,43.7072,-79.3995
COOL_LOCN,Lawrence Square,700 Lawrence Avenue West,43.7167,-79.4472
COOL_LOCN,Queen/Saulter Public Library,765 Queen St E,43.65919554,-79.34757962
COOL_LOCN,Winchester Park,530 ONTARIO ST,43.66561567,-79.37199398
COOL_LOCN,Rexdale Public Library,2243 Kipling Ave,43.72616079,-79.57319998
COOL_LOCN,Yonge Sheppard Centre,4841Yonge Street,43.7622,-79.4129
COOL_LOCN,Richview Public Library,1806 Islington Ave,43.68343314,-79.54112538
COOL_LOCN,Central Grosvenor Street YMCA Centre,20 Grosvenor Street,43.6633,-79.3872
COOL_LOCN,Cooper Koo Family Cherry St YMCA Centre,461 Cherry Street,43.6532,-79.3601
COOL_LOCN,Riverdale Public Library,370 Broadview Ave,43.66581483,-79.35318018
COOL_LOCN,North York YMCA Centre,567 Sheppard Avenue East,43.7656,-79.389
COOL_LOCN,Runnymede Public Library,2178 Bloor St W,43.65191032,-79.47391221
COOL_LOCN,S. Walter Stewart Public Library,170 Memorial Park Ave,43.69213829,-79.32971338
COOL_LOCN,Scarborough Town Centre Ct. YMCA Centre,230 Town Centre Court,43.7746,-79.2565
COOL_LOCN,Sanderson Public Library,327 Bathurst St,43.65190388,-79.40556231
COOL_LOCN,West End College St. YMCA Centre,931 College Street,43.6534,-79.4281
COOL_LOCN,519 Community Centre,519 Church St,43.666532,-79.38097
COOL_LOCN,Scarborough Civic Centre Public Library,156 Borough Dr,43.77248467,-79.2569156
COOL_LOCN,Agincourt Community Services Association (ACSA),4155 Sheppard Ave E,43.784559,-79.280908
COOL_LOCN,Spadina Road Public Library,10 Spadina Rd,43.66767784,-79.40466938
COOL_LOCN,Christie Ossington Neighbourhood Centre,850 Bloor St W,43.662421,-79.424201
COOL_LOCN,St. Clair/Silverthorn Public Library,1748 St. Clair Ave W,43.67434687,-79.46067201
COOL_LOCN,CRC,40 Oak St,43.661377,-79.365151
COOL_LOCN,St. James Town Public Library,495 Sherbourne St,43.667797,-79.374479
COOL_LOCN,Davenport Perth Neighbourhood and Community Health Centre,1900 Davenport Rd,43.6707,-79.4548
COOL_LOCN,St. Lawrence Public Library,171 Front St E,43.64997492,-79.36846981
COOL_LOCN,Steeles Public Library,"Bamburgh Gardens Shopping Plaza, 375 Bamburgh Circle",43.815762,-79.322286
COOL_LOCN,Evangel Hall Mission,552 Adelaide St W,43.64545,-79.40243
COOL_LOCN,Fred Victor,67 Adelaide St E,43.650986,-79.375299
COOL_LOCN,Swansea Memorial Public Library,95 Lavinia Ave,43.64765837,-79.4778817
COOL_LOCN,Good Shepherd Ministries,412 Queen St E,43.656151,-79.362522
COOL_LOCN,Taylor Memorial Public Library,1440 Kingston Rd,43.68783929,-79.2713062
COOL_LOCN,Haven Toronto,170 Jarvis St,43.655562,-79.374328
COOL_LOCN,Thorncliffe Public Library,48 Thorncliffe Park Dr,43.702947,-79.342737
COOL_LOCN,LAMP Community Health Centre,185 Fifth St,43.603741,-79.50401
COOL_LOCN,Todmorden Room Public Library,1081  Pape Ave (at Torrens),43.69178398,-79.34927045
COOL_LOCN,Native Child and Family Services of Toronto,655 Bloor St W  Toronto  ON  M6G 1L1,43.664107,-79.415456
COOL_LOCN,Toronto Reference Library,789 Yonge St,43.67188752,-79.38667321
COOL_LOCN,Parkdale Activity-Recreation Centre,1499 Queen St W  Toronto  ON  M6R 1A3,43.639648,-79.440557
COOL_LOCN,Victoria Village Public Library,184 Sloane Ave,43.73597132,-79.31289283
COOL_LOCN,Sherbourne Health Centre,"333 Sherbourne St, 2nd Fl  Toronto  ON  M5A 2S5",43.662388,-79.372209
COOL_LOCN,Weston Public Library,2 King St,43.70182,-79.520585
COOL_LOCN,Woodside Square Public Library,"Woodside Square Mall, 1571 Sandhurst Circle",43.80922934,-79.26931529
COOL_LOCN,St John the Compassionate Mission,155 Broadview Ave  Toronto  ON  M4M 2E9,43.660472,-79.350328
COOL_LOCN,Woodview Park Public Library,16 Bradstock Rd,43.73948734,-79.53831101
COOL_LOCN,York Woods Public Library,1785 Finch Ave W,43.75896488,-79.50735919
COOL_LOCN,Yorkville Public Library,22 Yorkville Ave,43.67195294,-79.38867265
COOL_LOCN,Agincourt Recreation Centre,31 Glen Watford Dr,43.788414,-79.276293
COOL_LOCN,Amesbury Community Centre,1507 Lawrence Ave W,43.707166,-79.482619
COOL_LOCN,Ancaster Community Centre,41 Ancaster Rd,43.732526,-79.465697
COOL_LOCN,Van Horne Park,561 VAN HORNE AVE,43.7865019,-79.33941467
COOL_LOCN,Annette Community Recreation Centre,333 Annette St,43.661204,-79.474139
COOL_LOCN,Antibes Community Centre,140 Antibes Dr,43.781155,-79.446977
COOL_LOCN,Armour Heights Community Centre,2140 Avenue Rd,43.739446,-79.421918
COOL_LOCN,Banbury Community Centre,120 Banbury Rd,43.742827,-79.369538
COOL_LOCN,Barbara Frum Community Centre,20 Covington Rd,43.720794,-79.432208
COOL_LOCN,Beaches Recreation Centre,6 Williamson Rd,43.673931,-79.298807
COOL_LOCN,Bedford Park Community Centre,81 Ranleigh Ave,43.727855,-79.400028
COOL_LOCN,Birchmount Community Centre,93 Birchmount Rd,43.695633,-79.263111
COOL_LOCN,Harrison Pool,15 STEPHANIE ST,43.65108109,-79.39079613
COOL_LOCN,Birkdale Community Centre,1299 Ellesmere Rd,43.768232,-79.263889
COOL_LOCN,Burrows Hall Community Centre,1081 Progress Ave,43.794056,-79.23437
COOL_LOCN,Carmine Stefano Community Centre,3100 Weston Rd,43.733697,-79.53962
COOL_LOCN,Cedarbrook Community Centre,91 Eastpark Blvd,43.755654,-79.22742
COOL_LOCN,Centennial Recreation Centre - Scarborough,1967 Ellesmere Rd,43.774837,-79.23715
COOL_LOCN,Agincourt Public Library,155 Bonis Ave,43.78521906,-79.29341395
COOL_LOCN,Albert Campbell Public Library,496 Birchmount Rd,43.70806479,-79.26935138
COOL_LOCN,Albion Public Library,1515 Albion Rd,43.73986146,-79.58417152
COOL_LOCN,High Park,1873 BLOOR ST,43.64654,-79.463497
COOL_LOCN,Alderwood Public Library,2 Orianna Dr,43.60190521,-79.54735577
COOL_LOCN,Amesbury Park Public Library,1565 Lawrence Ave W,43.70644648,-79.48575215
COOL_LOCN,Annette Street Public Library,145 Annette St,43.66331255,-79.46644435
COOL_LOCN,Armour Heights Public Library,2140 Avenue Rd,43.73944583,-79.42191783
COOL_LOCN,Barbara Frum Public Library,20 Covington Rd,43.72079393,-79.43220781
COOL_LOCN,Bayview Public Library,"Bayview Village Shopping Centre, 2901 Bayview Ave",43.76920286,-79.38602584
COOL_LOCN,Beaches Public Library,2161 Queen St E,43.67009146,-79.29849731
COOL_LOCN,Bendale Public Library,1515 Danforth Rd,43.75108241,-79.2440273
COOL_LOCN,Fairmount Park Community Centre,1757 GERRARD ST,43.676593,-79.314785
COOL_LOCN,Black Creek Public Library,North York Sheridan Mall 1700 Wilson Ave,43.7209713,-79.51253119
COOL_LOCN,Bloor/Gladstone Public Library,1101 Bloor St W,43.6599223,-79.43401849
COOL_LOCN,Brentwood Public Library,36 Brentwood Rd N,43.64743336,-79.514311
COOL_LOCN,Bridlewood Public Library,"Bridlewood Mall, lower level, 2900 Warden Ave",43.79855481,-79.31836745
COOL_LOCN,Brookbanks Public Library,210 Brookbanks Dr,43.75954992,-79.32590437
COOL_LOCN,Burrows Hall Public Library,1081 Progress Ave,43.794056,-79.23437022
COOL_LOCN,Cedarbrae Public Library,545 Markham Rd,43.75755735,-79.22396843
COOL_LOCN,Sentinel Park,295 SENTINEL RD,43.75514571,-79.49874603
COOL_LOCN,Shoreham Park,2 SHOREHAM CRT,43.770792,-79.519131
COOL_LOCN,Neilson Park - Scarborough,1555 NEILSON RD,43.81348657,-79.22435425
COOL_LOCN,Charles Caccia Park,348 Nairn AVE,43.68828177,-79.4542352
COOL_LOCN,Walter Saunders Memorial Park,440 HOPEWELL AVE,43.6996848,-79.44797492
COOL_LOCN,Highfield Park,68 STEVENSON RD,43.74431017,-79.58939314
COOL_LOCN,High Park,1873 BLOOR ST,43.64654,-79.463497
COOL_LOCN,Giovanni Caboto Park Pool,1369 St Clair Ave W,43.675653,-79.451657
COOL_LOCN,Monarch Park,115 FELSTEAD AVE,43.678849,-79.32627
COOL_LOCN,North Toronto Memorial Community Centre,200 EGLINTON AVE,43.706186,-79.404249
COOL_LOCN,Fairhaven Park,100 GOLFWOOD HTS,43.701771,-79.54513
COOL_LOCN,Monarch Park Pool,115 Felstead Ave,43.67881,-79.326098
COOL_LOCN,Alex Duff Memorial Pool,779 Crawford St,43.664912,-79.422726
COOL_LOCN,Toronto Pan Am Sports Centre,875 MORNINGSIDE AVE,43.789444,-79.193188
COOL_LOCN,York Recreation Centre,115 BLACK CREEK DR,43.68661771,-79.48011899
COOL_LOCN,Humber Community Pool,205 HUMBER COLLEGE BLVD,43.730849,-79.608844
COOL_LOCN,Northview Heights Secondary School,550 FINCH AVE,43.774503,-79.446065
COOL_LOCN,Cummer Park Community Centre,6000 LESLIE ST,43.800122,-79.371256
COOL_LOCN,The New Generation Youth Recreation Centre,2694 EGLINTON AVE,43.689863,-79.478351
COOL_LOCN,Wallace Emerson Community Centre,1260 DUFFERIN ST,43.667441,-79.439097
COOL_LOCN,East York Community Centre,1081 PAPE AVE,43.691732,-79.349401
COOL_LOCN,Joseph J. Piccininni Community Centre,1369 ST CLAIR AVE,43.675288,-79.451574
COOL_LOCN,Birchmount Community Centre,93 BIRCHMOUNT RD,43.69531,-79.261565
COOL_LOCN,Runnymede Collegiate Institute,569 JANE ST,43.663156,-79.489852
COOL_LOCN,Lester B. Pearson Collegiate Institute,150 TAPSCOTT RD,43.803059,-79.226017
COOL_LOCN,L'Amoreaux Collegiate Institute,2501 BRIDLETOWNE CIR,43.801504,-79.31864
COOL_LOCN,North Toronto Memorial Community Centre,200 EGLINTON AVE,43.706186,-79.404249
COOL_LOCN,Wexford Collegiate Institute,1176 PHARMACY AVE,43.746001,-79.306767
COOL_LOCN,Mary McCormick Recreation Centre,66 SHERIDAN AVE,43.647477,-79.432802
COOL_LOCN,Weston Collegiate Institute,100 PINE ST,43.703739,-79.509569
COOL_LOCN,Parkdale Community Recreation Centre,75 LANSDOWNE AVE,43.643443,-79.437478
COOL_LOCN,Matty Eckler Recreation Centre,953 GERRARD ST,43.667886,-79.339771
COOL_LOCN,York Mills Collegiate Institute,490 YORK MILLS RD,43.751097,-79.37365
COOL_LOCN,Vaughan Road Academy,529 VAUGHAN RD,43.690589,-79.436815
COOL_LOCN,Sir Oliver Mowat Collegiate Institute,5400 LAWRENCE AVE,43.779385,-79.142051
COOL_LOCN,Main Square Community Centre,245 MAIN ST,43.687164,-79.29985
COOL_LOCN,West Hill Collegiate Institute,350 MORNINGSIDE AVE,43.775738,-79.190376
COOL_LOCN,John Innes Community Recreation Centre,150 SHERBOURNE ST,43.65557,-79.369955
COOL_LOCN,Victoria Park Collegiate Institute,15 WALLINGFORD RD,43.75568,-79.321585
COOL_LOCN,St. Lawrence Community Recreation Centre,230 THE ESPLANADE,43.649807,-79.36493
COOL_LOCN,S.H. Armstrong Community Centre,56 WOODFIELD RD,43.665945,-79.322126
COOL_LOCN,Trinity Community Recreation Centre,155 CRAWFORD ST,43.646444,-79.414973
COOL_LOCN,Swansea Community Recreation Centre,15 WALLER AVE,43.643866,-79.477022
COOL_LOCN,Alderwood Centre,2 ORIANNA DR,43.601836,-79.547774
COOL_LOCN,Beaches Recreation Centre,6 WILLIAMSON RD,43.673955,-79.298821
COOL_LOCN,DA Morrison Middle School,271 GLEDHILL AVE,43.694565,-79.312094
COOL_LOCN,Annette Community Recreation Centre,333 ANNETTE ST,43.661273,-79.474259
COOL_LOCN,CW Jefferys Collegiate Institute,340 SENTINEL RD,43.758117,-79.500353
COOL_LOCN,Earl Beatty Community Centre,455 GLEBEHOLME BLVD,43.686461,-79.321143
COOL_LOCN,Georges Vanier Secondary School,3000 DON MILLS RD,43.783248,-79.351126
COOL_LOCN,Bedford Park Community Centre,81 RANLEIGH AVE,43.728173,-79.399908
COOL_LOCN,Emery Collegiate Institute,3395 WESTON RD,43.748271,-79.539236
COOL_LOCN,Scadding Court Community Centre,707 DUNDAS ST,43.651665,-79.404953
COOL_LOCN,Dennis R. Timbrell Resource Centre,29 ST DENNIS DR,43.718018,-79.331628
COOL_LOCN,Cedarbrae Collegiate Institute,550 MARKHAM RD,43.756582,-79.226156
COOL_LOCN,Albert Campbell Collegiate Institute,1550 SANDHURST CIR,43.809265,-79.272212
COOL_LOCN,Jimmie Simpson Recreation Centre,870 QUEEN ST,43.660041,-79.344948
COOL_LOCN,Antibes Community Centre,140 ANTIBES DR,43.781211,-79.446795
COOL_LOCN,Frankland Community Centre,816 LOGAN AVE,43.677428,-79.349662
COOL_LOCN,Gordon A. Brown Middle School,2800 ST CLAIR AVE,43.706938,-79.305835
COOL_LOCN,Hillcrest Community Centre,1339 BATHURST ST,43.679051,-79.415687
COOL_LOCN,Norseman Community School And Pool,105 NORSEMAN ST,43.634316,-79.516305
COOL_LOCN,The Elms Pool and Community School,45 GOLFDOWN DR,43.722739,-79.551852
COOL_LOCN,Etobicoke Olympium,590 RATHBURN RD,43.650236,-79.584349
COOL_LOCN,Memorial Pool and Health Club,44 MONTGOMERY RD,43.648428,-79.519356
COOL_LOCN,Centennial Recreation Centre - Scarborough,1967 ELLESMERE RD,43.774614,-79.236814
COOL_LOCN,Agincourt Recreation Centre,31 GLEN WATFORD DR,43.788648,-79.276013
COOL_LOCN,Douglas Snow Aquatic Centre,5100 YONGE ST,43.767245,-79.41477
COOL_LOCN,Leaside Memorial Gardens Swimming Pool - Indoor Pool,1073 MILLWOOD RD,43.701891,-79.360991
COOL_LOCN,Gus Ryder Pool and Health Club,1 FAUSTINA DR,43.601192,-79.522114
COOL_LOCN,Albion Pool and Health Club,1485 ALBION RD,43.739325,-79.581284
COOL_LOCN,McGregor Park Community Centre,2231 LAWRENCE AVE,43.747537,-79.28008
COOL_LOCN,Smythe Park,61 BLACK CREEK BLVD,43.67506516,-79.49784608
COOL_LOCN,Parkway Forest Outdoor Pool,59 Forest Manor RD,43.772377,-79.344396
COOL_LOCN,Fairbank Memorial Park,2213 DUFFERIN ST,43.6915952,-79.4478255
COOL_LOCN,Amesbury Sports Complex,155 CULFORD RD,43.706033,-79.486735
COOL_LOCN,Stanley Park South - Toronto,700 WELLINGTON ST,43.64185386,-79.40913303
COOL_LOCN,O'Connor Community Centre,1386 VICTORIA PARK AVE,43.717663,-79.301931
COOL_LOCN,Donald D. Summerville Olympic Pools,1867 LAKE SHORE BLVD,43.664903,-79.304898
COOL_LOCN,Sunnyside Gus Ryder Outdoor Pool,1755 LAKE SHORE BLVD,43.63680116,-79.4593602
COOL_LOCN,"Giovanni Caboto Rink, Pool and Tennis Courts",1367 ST CLAIR AVE,43.675704,-79.45227
COOL_LOCN,Alex Duff Memorial Pool,779 CRAWFORD ST,43.66461445,-79.42099197
COOL_LOCN,Rotary Peace Park Outdoor Pool,25 ELEVENTH ST,43.59389042,-79.50591623
COOL_LOCN,Ourland Park Outdoor Pool,36 OURLAND AVE,43.61549667,-79.50889204
COOL_LOCN,Driftwood Community Recreation Centre,4401 JANE ST,43.765384,-79.518764
COOL_LOCN,Blantyre Park,180 FALLINGBROOK RD,43.68300861,-79.28089195
COOL_LOCN,Weston Lions Park,2125 LAWRENCE AVE,43.69789026,-79.51773465
COOL_LOCN,Amos Waites Park Outdoor Pool,2441 LAKE SHORE BLVD,43.613291,-79.48851345
COOL_LOCN,West Mall Outdoor Pool,380 THE WEST MALL,43.64249209,-79.56689287
COOL_LOCN,West Deane Park Outdoor Pool,19 SEDGEBROOK CRES,43.660649,-79.561863
COOL_LOCN,Ledbury Park,160 LEDBURY ST,43.72678744,-79.42596015
COOL_LOCN,Lawrence Heights Community Centre,5 REPLIN RD,43.71847,-79.443102
COOL_LOCN,Irving W. Chapley Community Centre,205 WILMINGTON AVE,43.761588,-79.456089
COOL_LOCN,Grandravine Community Recreation Centre,23 GRANDRAVINE DR,43.751803,-79.490574
COOL_LOCN,Goulding Community Centre,45 GOULDING AVE,43.790626,-79.422164
COOL_LOCN,Gord and Irene Risk Community Centre,2650 FINCH AVE,43.747443,-79.56652
COOL_LOCN,Glen Long Community Centre,35 GLEN LONG AVE,43.708761,-79.456113
COOL_LOCN,Heron Park Community Centre,292 MANSE RD,43.768835,-79.17578
COOL_LOCN,Mitchell Field Community Centre,89 CHURCH AVE,43.774539,-79.408281
COOL_LOCN,Knob Hill Park,625 BRIMLEY RD,43.74388909,-79.24846736
COOL_LOCN,Park Lawn Park,330 PARK LAWN RD,43.6370094,-79.49481925
COOL_LOCN,Maryvale Park Outdoor Pool,5 TRESTLESIDE GRV,43.7530262,-79.30672952
COOL_LOCN,Oakdale Community Centre,350 GRANDRAVINE DR,43.747788,-79.513149
COOL_LOCN,Halbert Park,24 ROCKWOOD DR,43.72877269,-79.23151286
COOL_LOCN,Domenico Di Luca Community Recreation Centre,25 STANLEY RD,43.742429,-79.515673
COOL_LOCN,Roding Community Centre,600 RODING ST,43.729276,-79.492601
COOL_LOCN,Pleasantview Community Centre,545 VAN HORNE AVE,43.786962,-79.337102
COOL_LOCN,Oriole Community Centre,2975 DON MILLS RD,43.78187,-79.351131
COOL_LOCN,Fairhaven Park Outdoor Pool,100 GOLFWOOD HTS,43.70177091,-79.54513038
COOL_LOCN,Northwood Community Centre,15 CLUBHOUSE CRT,43.745563,-79.500372
COOL_LOCN,Wedgewood Park  Outdoor Pool,15 SWAN AVE,43.64441452,-79.54772958
COOL_LOCN,Monarch Park,115 FELSTEAD AVE,43.678849,-79.32627
COOL_LOCN,Lambton - Kingsway Park Outdoor Pool,37 MARQUIS AVE,43.65752829,-79.50800438
COOL_LOCN,Greenwood Park,150 GREENWOOD AVE,43.66855,-79.328748
COOL_LOCN,Eringate Park Outdoor Pool,121 WELLESWORTH DR,43.66257189,-79.58109333
COOL_LOCN,Westgrove Park Outdoor Pool,15 REDGRAVE DR,43.68176605,-79.56785509
COOL_LOCN,Alexandra Park,275 BATHURST ST,43.651152,-79.404958
COOL_LOCN,Broadlands Community Centre,19 CASTLEGROVE BLVD,43.745989,-79.322827
COOL_LOCN,Pine Point Park Outdoor Pool,15 GRIERSON RD,43.71540123,-79.54097075
COOL_LOCN,Flagstaff Park Outdoor Pool,42 MERCURY RD,43.72111996,-79.59083238
COOL_LOCN,Smithfield Park Outdoor Pool,175 MOUNT OLIVE DR,43.74755159,-79.59607509
COOL_LOCN,Gihon Spring Park Outdoor Pool,75 GIHON SPRING DR,43.75447416,-79.59482298
COOL_LOCN,Kiwanis Outdoor Pool,375 CEDARVALE AVE,43.69831218,-79.31425482
COOL_LOCN,Riverdale Park East,550 BROADVIEW AVE,43.66999498,-79.35594026
COOL_LOCN,Leaside Outdoor Pool,5 LEASIDE PARK DR,43.70203158,-79.35022813
COOL_LOCN,North Toronto Memorial Community Centre,200 EGLINTON AVE,43.706186,-79.404249
COOL_LOCN,Richmond Gardens Pool,44 STRATHDEE DR,43.681851,-79.545353
COOL_LOCN,Westmount Park Outdoor Pool,22 ARCADE DR,43.68724202,-79.51897978
COOL_LOCN,Fairhaven Park,100 GOLFWOOD HTS,43.70177091,-79.54513038
COOL_LOCN,Livingstone Park,21 WOODVILLE AVE,43.69116835,-79.35398315
COOL_LOCN,Campbell Avenue Playground,225 CAMPBELL AVE,43.6635383,-79.44849883
COOL_LOCN,Sunnylea Park,195 PRINCE EDWARD DR,43.64150244,-79.50182897
COOL_LOCN,Osler Playground,123 ARGYLE ST,43.64584224,-79.42272385
COOL_LOCN,Kempton Howard Park,150 BLAKE ST,43.67615641,-79.34035221
COOL_LOCN,Oriole Park - Toronto,201 ORIOLE PKWY,43.69719119,-79.40043637
COOL_LOCN,Don Russell Memorial Park,290 BIRMINGHAM ST,43.60141158,-79.52150262
COOL_LOCN,Vine Avenue Playground,200 VINE AVE,43.66693641,-79.47069656
COOL_LOCN,Loretto College - Wading Pool,151 ROSEMOUNT AVE,43.67519,-79.44444
COOL_LOCN,Vermont Square Park,819 PALMERSTON AVE,43.67076974,-79.41558656
COOL_LOCN,Leslie Grove Park,1158 QUEEN ST,43.66310396,-79.33375935
COOL_LOCN,Eglinton Park,200 EGLINTON AVE,43.70740121,-79.40552685
COOL_LOCN,High Park,1873 BLOOR ST,43.64654,-79.463497
COOL_LOCN,Wanless Park,250 WANLESS AVE,43.72887803,-79.3922559
COOL_LOCN,Hideaway Park,23 AUDLEY AVE,43.66455493,-79.338183
COOL_LOCN,Wadsworth Park,120 CONNOLLY ST,43.67228522,-79.45817036
COOL_LOCN,Topham Park,181 WESTVIEW BLVD,43.709918,-79.306521
COOL_LOCN,Hillcrest Park,950 DAVENPORT RD,43.67592887,-79.42472448
COOL_LOCN,Pelham Avenue Playground,20 PELHAM AVE,43.6683341,-79.45575836
COOL_LOCN,Kew Gardens,2075 QUEEN ST,43.667946,-79.29778
COOL_LOCN,Beresford Park,400 BERESFORD AVE,43.65617682,-79.4796644
COOL_LOCN,Dufferin Grove Park,875 DUFFERIN ST,43.65624245,-79.43268597
COOL_LOCN,West Lodge Park,165 LANSDOWNE AVE,43.64604787,-79.43818706
COOL_LOCN,East Toronto Athletic Field,175 MAIN ST,43.68524125,-79.29935248
COOL_LOCN,East Lynn Park,1949 DANFORTH AVE,43.68415167,-79.31557247
COOL_LOCN,Healey Willan Park,504 EUCLID AVE,43.6592219,-79.41340576
COOL_LOCN,Charles G. Williams Park,75 WABASH AVE,43.64748155,-79.44347149
COOL_LOCN,Phin Avenue Parkette,115 CONDOR AVE,43.67786094,-79.33651432
COOL_LOCN,Margaret Fairley Park,100 BRUNSWICK AVE,43.66021508,-79.40582689
COOL_LOCN,Withrow Park and Clubhouse,725 LOGAN AVE,43.674952,-79.347131
COOL_LOCN,Winchester Park,530 ONTARIO ST,43.66561567,-79.37199398
COOL_LOCN,Ramsden Park,1020 YONGE ST,43.67641,-79.389569
COOL_LOCN,Little Norway Park,659 QUEENS QUAY,43.63422378,-79.39868073
COOL_LOCN,Budapest Park,1575 LAKE SHORE BLVD,43.63680757,-79.44956381
COOL_LOCN,Fairmount Park,1725 GERRARD ST,43.67583716,-79.31592609
COOL_LOCN,Primrose Avenue Parkette,120 PRIMROSE AVE,43.67143615,-79.44663737
COOL_LOCN,Monarch Park,115 FELSTEAD AVE,43.678849,-79.32627
COOL_LOCN,Riverdale Park West,375 SUMACH ST,43.66659338,-79.3592231
COOL_LOCN,David Crombie Park,131 THE ESPLANADE,43.64853941,-79.36810383
COOL_LOCN,Sherwood Park,190 SHERWOOD AVE,43.71672437,-79.3885194
COOL_LOCN,Carlton Park,20 EDITH AVE,43.66650714,-79.45567501
COOL_LOCN,Albert Crosland Park,14 FULLER AVE,43.64072753,-79.44029076
COOL_LOCN,Jimmie Simpson Park,870 QUEEN ST,43.660057,-79.345227
COOL_LOCN,Randy Padmore Park,47 DENISON AVE,43.64975449,-79.401045
COOL_LOCN,Wells Hill Park,145 HILTON AVE,43.68284052,-79.4165921
COOL_LOCN,Matty Eckler Playground,953 GERRARD ST,43.66794638,-79.33854054
COOL_LOCN,George Webster Park,30 CHAPMAN AVE,43.70124076,-79.30117396
COOL_LOCN,General Mercer School - Wading Pool,30 TURNBERRY AVE,43.68032,-79.46432
COOL_LOCN,Ravina Gardens,290 CLENDENAN AVE,43.65992211,-79.47365743
COOL_LOCN,Earlscourt Park,1200 LANSDOWNE AVE,43.67356818,-79.45170196
COOL_LOCN,Moorevale Park,175 MOORE AVE,43.69347618,-79.38246474
COOL_LOCN,Woburn Avenue Playground,75 WOBURN AVE,43.72743454,-79.40597989
COOL_LOCN,Morse Street Playground,76 MORSE ST,43.65678578,-79.3402202
COOL_LOCN,Knob Hill Park,625 BRIMLEY RD,43.74388909,-79.24846736
COOL_LOCN,Spencer - Cowan Parkette,80 SPENCER AVE,43.63631882,-79.43090544
COOL_LOCN,Highview Park,150 HIGHVIEW AVE,43.7026208,-79.25814236
COOL_LOCN,Chelsea Avenue Playground,103 CHELSEA AVE,43.65732027,-79.45594463
COOL_LOCN,Prairie Drive Park,101 Pharmacy Ave DR,43.69705805,-79.28432047
COOL_LOCN,Rennie Park,1 RENNIE TER,43.643058,-79.472549
COOL_LOCN,Maryvale Park,5 TRESTLESIDE GRV,43.7530262,-79.30672952
COOL_LOCN,Rosedale Park,20 SCHOLFIELD AVE,43.68272452,-79.37912942
COOL_LOCN,Christie Pits Park,750 BLOOR ST,43.664659,-79.420842
COOL_LOCN,Stanley Park North - Toronto,890 KING ST,43.64307555,-79.41004117
COOL_LOCN,Close Avenue Parkette,116 CLOSE AVE,43.63703505,-79.43518297
COOL_LOCN,Halbert Park,24 ROCKWOOD DR,43.72877269,-79.23151286
COOL_LOCN,Birch Park,75 ARCADIAN CIR,43.59168211,-79.52829394
COOL_LOCN,Centennial Park - Etobicoke,256 CENTENNIAL PARK RD,43.656034,-79.588882
COOL_LOCN,Stephenson Park,61 STEPHENSON AVE,43.68592807,-79.30383372
COOL_LOCN,Rexlington Park,30 BERGAMOT AVE,43.71650959,-79.55954312
COOL_LOCN,Mimico Memorial Park,75 HILLSIDE AVE,43.60975831,-79.49386615
COOL_LOCN,Sumach - Shuter Parkette,485 SHUTER ST,43.65827159,-79.35894797
COOL_LOCN,Sunnydale Acres Park,50 AMORO DR,43.72404271,-79.57871854
COOL_LOCN,Coleman Park,19 COLEMAN AVE,43.68934368,-79.30001523
COOL_LOCN,Summerlea Park,2 ARCOT BLVD,43.73107613,-79.55081825
COOL_LOCN,Fred Hamilton Playground,155 ROXTON RD,43.65290885,-79.42043039
COOL_LOCN,Sir Casimir Gzowski Park,2001 LAKE SHORE BLVD,43.6349239,-79.46631982
COOL_LOCN,Art Eggleton Park,323 HARBORD ST,43.65889417,-79.41835802
COOL_LOCN,Columbus Parkette,1985 DUNDAS ST,43.65090331,-79.44623037
COOL_LOCN,Prince of Wales Park,1 THIRD ST,43.5987857,-79.4989802
COOL_LOCN,Northumberland Playground,770 OSSINGTON AVE,43.6627298,-79.42655574
COOL_LOCN,Glen Park,44 EASTGLEN CRES,43.65076816,-79.55307571
COOL_LOCN,Marian Engel Park,285 MELITA AVE,43.67371745,-79.42436498
COOL_LOCN,Lionel Conacher Park,80 COTTINGHAM ST,43.68042937,-79.39460733
COOL_LOCN,Marie Curtis Park,2 FORTY SECOND ST,43.58564323,-79.54407233
COOL_LOCN,Norwood Park,16 NORWOOD RD,43.68230922,-79.30336606
COOL_LOCN,Trace Manes Park,110 RUMSEY RD,43.70551558,-79.36764861
COOL_LOCN,Masaryk Park,212 COWAN AVE,43.64024836,-79.4333265
COOL_LOCN,Oakcrest Parkette,30 OAKCREST AVE,43.68347559,-79.31166487
COOL_LOCN,Geary Avenue Parkette,15 GEARY AVE,43.67090966,-79.43092788
COOL_LOCN,Runnymede Park,221 RYDING AVE,43.6682365,-79.47874997
COOL_LOCN,Jonathan Ashbridge Park,1515 QUEEN ST,43.66464268,-79.32013169
COOL_LOCN,McCormick Park,66 SHERIDAN AVE,43.647492,-79.432833
COOL_LOCN,Trinity Bellwoods Park,790 QUEEN ST,43.645515,-79.413834
COOL_LOCN,YWCA Toronto,80 Woodlawn Ave E Toronto  ON M4T 1C1,43.6845473,-79.3899842
COOL_LOCN,Warden Woods Community Centre,705 Progress Ave  Toronto  ON  M1H 2X1,43.77318,-79.246023
COOL_LOCN,St Felix Centre,69 Fraser Ave  Toronto  ON  M6K 1E9,43.638484,-79.424373
COOL_LOCN,Dixon Hall Neighbourhood Services,351 Lakeshore Ave E  Toronto  ON  M5A 1C1,43.648125,-79.359695
COOL_LOCN,Fred Victor,1A Strachan Ave Toronto  ON  M6K 3C3,43.63629,-79.409387
COOL_LOCN,City of Toronto,129 Peter St Toronto  ON M5V 2H3,43.6486966,-79.3932737
COOL_LOCN,Margaret's Housing and Community Support Services,323 Dundas St E  Toronto  ON  M5A 2A2,43.658316,-79.370103
COOL_LOCN,Margaret's Housing and Community Support Services,21 Park Rd  Toronto  ON  M4W 2N1,43.672096,-79.384462
COOL_LOCN,YWCA Toronto,348 Davenport Road Toronto  ON M5R 1K6,43.675281,-79.401442
COOL_LOCN,The Salvation Army of Canada,29 Leslie St Toronto  ON M4M 3C3,43.661969,-79.329504
COOL_LOCN,Toronto Community Hostel,191 Spadina Rd Toronto  ON M5R 2T9,43.673617,-79.406284
COOL_LOCN,Homes First Society,702 Kennedy Rd Toronto  ON M1K 2B5,43.7279261,-79.2676743
COOL_LOCN,Christie Ossington Neighbourhood Centre,850 Bloor St W Toronto  ON M6G 1M2,43.662443,-79.424144
COOL_LOCN,YMCA of Greater Toronto,7 Vanauley St Toronto  ON M5T 2V9,43.648883,-79.398229
COOL_LOCN,Kennedy House Youth Services,1076 Pape Ave Toronto  ON M4K 3W5,43.6909102,-79.3496628
COOL_LOCN,City of Toronto,1229 Ellesmere Rd Toronto  ON M1P 4V8,43.7682822,-79.2674466
COOL_LOCN,City of Toronto,291 Sherbourne St Toronto  ON M5A 2R9,43.6605072,-79.371793
COOL_LOCN,City of Toronto,4222 Kingston Rd Toronto  ON M1E 2M6,43.7607677,-79.1967389
COOL_LOCN,Youth Without Shelter,6 Warrendale Ct Etobicoke  ON M9V 1P9,43.7362929,-79.5804269
COOL_LOCN,The Salvation Army of Canada,723 Queen St W Toronto  ON M6J 1E6,43.6464893,-79.4063381
COOL_LOCN,Dixon Hall,2714 Danforth Ave Toronto  ON M4C 1L7,43.6891159,-79.2982555
COOL_LOCN,The Scott Mission Inc.,502 Spadina Ave Toronto  ON M5S 2H1,43.6586304,-79.4007405
COOL_LOCN,City of Toronto,339 George St Toronto  ON M5A 2N2,43.659956,-79.3742652
COOL_LOCN,City of Toronto,674 Dundas St W Toronto  ON M5H 1H9,43.6518818,-79.4036945
COOL_LOCN,Na-Me-Res (Native Men's Residence),14 Vaughan Rd Toronto  ON M6G 2N1,43.68148231,-79.41817246
COOL_LOCN,WoodGreen Red Door Family Shelter,1430 Gerrard St E Toronto  ON M4M 1J2,43.672485,-79.322398
COOL_LOCN,City of Toronto,129 Peter St Toronto  ON M5V 2H3,43.6486966,-79.3932737
COOL_LOCN,Homes First Society,545 Lakeshore Blvd. West Toronto  ON M5V 1A3,43.636526,-79.398788
COOL_LOCN,YouthLink,747 Warden Ave Scarborough  ON M1L 4A1,43.717716,-79.28325
COOL_LOCN,The Salvation Army of Canada,2671 Islington Avenue Toronto  ON M9V 2X6,43.739305,-79.56588
COOL_LOCN,Homes First Society,805A Wellington St W Toronto  ON M5V 1G8,43.640808,-79.4103664
COOL_LOCN,Homes First Society,1322 Bloor St W Toronto  ON M6H 1P2,43.6583716,-79.4432342
COOL_LOCN,Homes First Society,3576 St. Clair Ave E Toronto  ON M1K 1M2,43.717528,-79.2581094
COOL_LOCN,Christie Ossington Neighbourhood Centre,973 Lansdowne Ave Toronto  ON M6H 3Z5,43.666118,-79.4461007
COOL_LOCN,Cornerstone Place,616 Vaughan Rd Toronto  ON M6C 2R5,43.6919622,-79.4398588
COOL_LOCN,Covenant House Toronto,20 Gerrard St E Toronto  ON M5B 2P3,43.6594024,-79.3814884
COOL_LOCN,Eva's Initiatives,360 Lesmill Rd Toronto  ON M3B 2T5,43.7633708,-79.3608999
COOL_LOCN,Eva's Initiatives,25 Canterbury Pl Toronto  ON M3N 0E3,43.7728179,-79.4147577
COOL_LOCN,Good Shepherd Ministries,412 Queen St East Toronto  ON M5A 1T3,43.6561511,-79.3625224
COOL_LOCN,Dixon Hall,349 George St Toronto  ON M5A 2N2,43.6601444,-79.3743056
COOL_LOCN,Horizon for Youth,422 Gilbert Ave Toronto  ON M6E 4X3,43.6893531,-79.4623882
COOL_LOCN,Society of St.Vincent De Paul,70 Gerrard St E Toronto  ON M5B 1G6,43.6600505,-79.3783116
COOL_LOCN,"Christie Refugee Welcome Centre, Inc.",43 Christie St Toronto  ON M6G 3B1,43.665211,-79.4188483
COOL_LOCN,Fred Victor Centre,1161 Caledonia Rd Toronto  ON M6A 2W9,43.7156415,-79.4666111
COOL_LOCN,Fred Victor Centre,86 Lombard St Toronto  ON M5C 1M3,43.6522764,-79.3738782
COOL_LOCN,The Salvation Army of Canada,135 Sherbourne St Toronto  ON M5A 2R5,43.6550275,-79.3692151
COOL_LOCN,The MUC Shelter Corporation,101 Ontario St Toronto  ON M5A 2V2,43.6544994,-79.366777
COOL_LOCN,Street Haven At The Crossroads,87 Pembroke St Toronto  ON M5A 2N9,43.6592425,-79.3724296
COOL_LOCN,Turning Point Youth Services,95 Wellesley St E Toronto  ON M4Y 2X9,43.6658642,-79.3792152
COOL_LOCN,St. Simon's Shelter Inc.,525 Bloor St E Toronto  ON M4W 1J1,43.6719373,-79.3740542
COOL_LOCN,The Salvation Army of Canada,107 Jarvis St Toronto  ON M5C 2H4,43.6523669,-79.3722725
COOL_LOCN,The Salvation Army of Canada,2808 Dundas St W Toronto  ON M6P 1Y5,43.6655189,-79.4631381
COOL_LOCN,COSTI Immigrant Services,100 Lippincott St Toronto  ON M5S 2P1,43.6576775,-79.4070466
COOL_LOCN,Society of St.Vincent De Paul,60 Newcastle St Toronto  ON M8Y 1A3,43.6180295,-79.4973215
